[{"OBJECT_NAME":"DMSP 5D-3 F17 (USA 191)","OBJECT_ID":"2006-050A","EPOCH":"2026-03-09T23:03:38.328192","MEAN_MOTION":14.14964226,"ECCENTRICITY":0.00097378,"INCLINATION":98.7414,"RA_OF_ASC_NODE":77.5505,"ARG_OF_PERICENTER":346.0855,"MEAN_ANOMALY":14.0049,"EPHEMERIS_TYPE":0,"CLASSIFICATION_TYPE":"U","NORAD_CAT_ID":29522,"ELEMENT_SET_NO":999,"REV_AT_EPOCH":99838,"BSTAR":0.00013823523,"MEAN_MOTION_DOT":2.24e-6,"MEAN_MOTION_DDOT":0},{"OBJECT_NAME":"METEOR 1-13","OBJECT_ID":"1972-085A","EPOCH":"2026-03-09T22:44:14.153856","MEAN_MOTION":14.09466436,"ECCENTRICITY":0.00299298,"INCLINATION":81.2693,"RA_OF_ASC_NODE":249.0436,"ARG_OF_PERICENTER":60.6999,"MEAN_ANOMALY":299.7156,"EPHEMERIS_TYPE":0,"CLASSIFICATION_TYPE":"U","NORAD_CAT_ID":6256,"ELEMENT_SET_NO":999,"REV_AT_EPOCH":74089,"BSTAR":0.00011244792,"MEAN_MOTION_DOT":2.1e-6,"MEAN_MOTION_DDOT":0}]
